{"type": "FeatureCollection", "features": [ {"type": "Feature", "properties": {"norad_id": 66869, "name": "STARLINK-36092", "group": "last-30-days", "lat": 42.97740959057575, "lon": 159.0559447159474, "alt_km": 350.02603932396414, "timestamp": "2025-12-21T07:34:33.302677+00:00", "meta": {"OBJECT_NAME": "STARLINK-36092", "OBJECT_ID": "2025-281X", "EPOCH": "2025-12-20T22:00:01.999584", "MEAN_MOTION": 15.72786945, "ECCENTRICITY": 0.00014333, "INCLINATION": 43.0009, "RA_OF_ASC_NODE": 72.2513, "ARG_OF_PERICENTER": 275.4472, "MEAN_ANOMALY": 73.4502, "EPHEMERIS_TYPE": 0, "CLASSIFICATION_TYPE": "U", "NORAD_CAT_ID": 66869, "ELEMENT_SET_NO": 999, "REV_AT_EPOCH": 274, "BSTAR": -0.015834238, "MEAN_MOTION_DOT": -0.01953936, "MEAN_MOTION_DDOT": 0}, "tle": {"line1": "1 66869U 25281X   25354.91668981 -.01953936  00000+0 -15834-1 0  9999", "line2": "2 66869  43.0009  72.2513 0001433 275.4472  73.4502 15.72786945  2743"}}, "geometry": {"type": "Point", "coordinates": [159.0559447159474, 42.97740959057575]}}, {"type": "Feature", "properties": {"norad_id": 66870, "name": "STARLINK-36114", "group": "last-30-days", "lat": 42.96531367726782, "lon": 161.67299367980866, "alt_km": 349.99200191469026, "timestamp": "2025-12-21T07:34:33.302687+00:00", "meta": {"OBJECT_NAME": "STARLINK-36114", "OBJECT_ID": "2025-281Y", "EPOCH": "2025-12-20T22:00:01.999584", "MEAN_MOTION": 15.727914, "ECCENTRICITY": 0.00013796, "INCLINATION": 43.0008, "RA_OF_ASC_NODE": 72.2464, "ARG_OF_PERICENTER": 275.8812, "MEAN_ANOMALY": 74.9283, "EPHEMERIS_TYPE": 0, "CLASSIFICATION_TYPE": "U", "NORAD_CAT_ID": 66870, "ELEMENT_SET_NO": 999, "REV_AT_EPOCH": 260, "BSTAR": -0.015859991, "MEAN_MOTION_DOT": -0.01957037, "MEAN_MOTION_DDOT": 0}, "tle": {"line1": "1 66870U 25281Y   25354.91668981 -.01957037  00000+0 -15860-1 0  9996", "line2": "2 66870  43.0008  72.2464 0001379 275.8812  74.9283 15.72791400  2609"}}, "geometry": {"type": "Point", "coordinates": [161.67299367980866, 42.96531367726782]}}, {"type": "Feature", "properties": {"norad_id": 66871, "name": "STARLINK-36095", "group": "last-30-days", "lat": 42.8934458967855, "lon": 164.28869191803236, "alt_km": 350.0726925552035, "timestamp": "2025-12-21T07:34:33.302716+00:00", "meta": {"OBJECT_NAME": "STARLINK-36095", "OBJECT_ID": "2025-281Z", "EPOCH": "2025-12-20T22:00:01.999584", "MEAN_MOTION": 15.72789972, "ECCENTRICITY": 0.00014538, "INCLINATION": 43.0008, "RA_OF_ASC_NODE": 72.2413, "ARG_OF_PERICENTER": 274.918, "MEAN_ANOMALY": 77.8134, "EPHEMERIS_TYPE": 0, "CLASSIFICATION_TYPE": "U", "NORAD_CAT_ID": 66871, "ELEMENT_SET_NO": 999, "REV_AT_EPOCH": 274, "BSTAR": -0.015877929, "MEAN_MOTION_DOT": -0.01958948, "MEAN_MOTION_DDOT": 0}, "tle": {"line1": "1 66871U 25281Z   25354.91668981 -.01958948  00000+0 -15878-1 0  9998", "line2": "2 66871  43.0008  72.2413 0001453 274.9180  77.8134 15.72789972  2748"}}, "geometry": {"type": "Point", "coordinates": [164.28869191803236, 42.8934458967855]}}, {"type": "Feature", "properties": {"norad_id": 66872, "name": "STARLINK-36082", "group": "last-30-days", "lat": 42.76221796185255, "lon": 166.89371634757055, "alt_km": 350.0826250479986, "timestamp": "2025-12-21T07:34:33.302725+00:00", "meta": {"OBJECT_NAME": "STARLINK-36082", "OBJECT_ID": "2025-281AA", "EPOCH": "2025-12-20T22:00:01.999584", "MEAN_MOTION": 15.72784189, "ECCENTRICITY": 0.00014477, "INCLINATION": 43.0009, "RA_OF_ASC_NODE": 72.2364, "ARG_OF_PERICENTER": 275.5595, "MEAN_ANOMALY": 79.0903, "EPHEMERIS_TYPE": 0, "CLASSIFICATION_TYPE": "U", "NORAD_CAT_ID": 66872, "ELEMENT_SET_NO": 999, "REV_AT_EPOCH": 260, "BSTAR": -0.015800321, "MEAN_MOTION_DOT": -0.01950037, "MEAN_MOTION_DDOT": 0}, "tle": {"line1": "1 66872U 25281AA  25354.91668981 -.01950037  00000+0 -15800-1 0  9995", "line2": "2 66872  43.0009  72.2364 0001447 275.5595  79.0903 15.72784189  2603"}}, "geometry": {"type": "Point", "coordinates": [166.89371634757055, 42.76221796185255]}}, {"type": "Feature", "properties": {"norad_id": 66873, "name": "STARLINK-36128", "group": "last-30-days", "lat": 42.01709148148823, "lon": 174.61195726889676, "alt_km": 350.22486437768566, "timestamp": "2025-12-21T07:34:33.302734+00:00", "meta": {"OBJECT_NAME": "STARLINK-36128", "OBJECT_ID": "2025-281AB", "EPOCH": "2025-12-20T22:00:01.999584", "MEAN_MOTION": 15.72787175, "ECCENTRICITY": 0.00014778, "INCLINATION": 43.0008, "RA_OF_ASC_NODE": 72.2213, "ARG_OF_PERICENTER": 277.8403, "MEAN_ANOMALY": 82.5593, "EPHEMERIS_TYPE": 0, "CLASSIFICATION_TYPE": "U", "NORAD_CAT_ID": 66873, "ELEMENT_SET_NO": 999, "REV_AT_EPOCH": 274, "BSTAR": -0.015837092, "MEAN_MOTION_DOT": -0.019543, "MEAN_MOTION_DDOT": 0}, "tle": {"line1": "1 66873U 25281AB  25354.91668981 -.01954300  00000+0 -15837-1 0  9993", "line2": "2 66873  43.0008  72.2213 0001477 277.8403  82.5593 15.72787175  2749"}}, "geometry": {"type": "Point", "coordinates": [174.61195726889676, 42.01709148148823]}}, {"type": "Feature", "properties": {"norad_id": 66874, "name": "STARLINK-36129", "group": "last-30-days", "lat": 42.57176672196595, "lon": 169.48689587599281, "alt_km": 350.1408245631628, "timestamp": "2025-12-21T07:34:33.302743+00:00", "meta": {"OBJECT_NAME": "STARLINK-36129", "OBJECT_ID": "2025-281AC", "EPOCH": "2025-12-20T22:00:01.999584", "MEAN_MOTION": 15.72787414, "ECCENTRICITY": 0.0001481, "INCLINATION": 43.0009, "RA_OF_ASC_NODE": 72.2314, "ARG_OF_PERICENTER": 277.1732, "MEAN_ANOMALY": 79.3928, "EPHEMERIS_TYPE": 0, "CLASSIFICATION_TYPE": "U", "NORAD_CAT_ID": 66874, "ELEMENT_SET_NO": 999, "REV_AT_EPOCH": 274, "BSTAR": -0.01584569, "MEAN_MOTION_DOT": -0.01955259, "MEAN_MOTION_DDOT": 0}, "tle": {"line1": "1 66874U 25281AC  25354.91668981 -.01955259  00000+0 -15846-1 0  9998", "line2": "2 66874  43.0009  72.2314 0001481 277.1732  79.3928 15.72787414  2748"}}, "geometry": {"type": "Point", "coordinates": [169.48689587599281, 42.57176672196595]}}, {"type": "Feature", "properties": {"norad_id": 66875, "name": "STARLINK-36053", "group": "last-30-days", "lat": 41.65550256527625, "lon": 177.1343811836579, "alt_km": 350.23796497293915, "timestamp": "2025-12-21T07:34:33.302752+00:00", "meta": {"OBJECT_NAME": "STARLINK-36053", "OBJECT_ID": "2025-281AD", "EPOCH": "2025-12-20T22:00:01.999584", "MEAN_MOTION": 15.72790388, "ECCENTRICITY": 0.00014289, "INCLINATION": 43.001, "RA_OF_ASC_NODE": 72.216, "ARG_OF_PERICENTER": 273.8681, "MEAN_ANOMALY": 88.4454, "EPHEMERIS_TYPE": 0, "CLASSIFICATION_TYPE": "U", "NORAD_CAT_ID": 66875, "ELEMENT_SET_NO": 999, "REV_AT_EPOCH": 274, "BSTAR": -0.015850385, "MEAN_MOTION_DOT": -0.01955952, "MEAN_MOTION_DDOT": 0}, "tle": {"line1": "1 66875U 25281AD  25354.91668981 -.01955952  00000+0 -15850-1 0  9994", "line2": "2 66875  43.0010  72.2160 0001428 273.8681  88.4454 15.72790388  2746"}}, "geometry": {"type": "Point", "coordinates": [177.1343811836579, 41.65550256527625]}}, {"type": "Feature", "properties": {"norad_id": 66876, "name": "STARLINK-35702", "group": "last-30-days", "lat": 42.323028656401696, "lon": 172.06096508561973, "alt_km": 350.16886918396267, "timestamp": "2025-12-21T07:34:33.302763+00:00", "meta": {"OBJECT_NAME": "STARLINK-35702", "OBJECT_ID": "2025-281AE", "EPOCH": "2025-12-20T22:00:01.999584", "MEAN_MOTION": 15.7278863, "ECCENTRICITY": 0.00014645, "INCLINATION": 43.0008, "RA_OF_ASC_NODE": 72.2266, "ARG_OF_PERICENTER": 277.7921, "MEAN_ANOMALY": 80.6898, "EPHEMERIS_TYPE": 0, "CLASSIFICATION_TYPE": "U", "NORAD_CAT_ID": 66876, "ELEMENT_SET_NO": 999, "REV_AT_EPOCH": 274, "BSTAR": -0.015856279, "MEAN_MOTION_DOT": -0.01956493, "MEAN_MOTION_DDOT": 0}, "tle": {"line1": "1 66876U 25281AE  25354.91668981 -.01956493  00000+0 -15856-1 0  9992", "line2": "2 66876  43.0008  72.2266 0001464 277.7921  80.6898 15.72788630  2744"}}, "geometry": {"type": "Point", "coordinates": [172.06096508561973, 42.323028656401696]}}, {"type": "Feature", "properties": {"norad_id": 66877, "name": "ZQ-3 R/B", "group": "last-30-days", "lat": -39.819064314494234, "lon": -8.470668852965401, "alt_km": 485.6402383137138, "timestamp": "2025-12-21T07:34:33.302774+00:00", "meta": {"OBJECT_NAME": "ZQ-3 R/B", "OBJECT_ID": "2025-282A", "EPOCH": "2025-12-20T07:25:11.913024", "MEAN_MOTION": 14.74860688, "ECCENTRICITY": 0.07154631, "INCLINATION": 56.9493, "RA_OF_ASC_NODE": 28.3554, "ARG_OF_PERICENTER": 233.2383, "MEAN_ANOMALY": 120.0902, "EPHEMERIS_TYPE": 0, "CLASSIFICATION_TYPE": "U", "NORAD_CAT_ID": 66877, "ELEMENT_SET_NO": 999, "REV_AT_EPOCH": 250, "BSTAR": 0.00016912558, "MEAN_MOTION_DOT": 0.0093684, "MEAN_MOTION_DDOT": 7.752874e-06}, "tle": {"line1": "1 66877U 25282A   25354.30916566  .00936840  77529-5  16913-3 0  9996", "line2": "2 66877  56.9493  28.3554 0715463 233.2383 120.0902 14.74860688  2502"}}, "geometry": {"type": "Point", "coordinates": [-8.470668852965401, -39.819064314494234]}}, {"type": "Feature", "properties": {"norad_id": 66878, "name": "STARLINK-35866", "group": "last-30-days", "lat": 26.121446695759474, "lon": -170.71535601506116, "alt_km": 343.60761543999615, "timestamp": "2025-12-21T07:34:33.302783+00:00", "meta": {"OBJECT_NAME": "STARLINK-35866", "OBJECT_ID": "2025-283A", "EPOCH": "2025-12-20T22:00:01.999584", "MEAN_MOTION": 15.74191315, "ECCENTRICITY": 9.082e-05, "INCLINATION": 53.1583, "RA_OF_ASC_NODE": 32.8366, "ARG_OF_PERICENTER": 94.9682, "MEAN_ANOMALY": 309.2439, "EPHEMERIS_TYPE": 0, "CLASSIFICATION_TYPE": "U", "NORAD_CAT_ID": 66878, "ELEMENT_SET_NO": 999, "REV_AT_EPOCH": 374, "BSTAR": -0.00023031718, "MEAN_MOTION_DOT": -0.00034225, "MEAN_MOTION_DDOT": 0}, "tle": {"line1": "1 66878U 25283A   25354.91668981 -.00034225  00000+0 -23032-3 0  9992", "line2": "2 66878  53.1583  32.8366 0000908  94.9682 309.2439 15.74191315  3746"}}, "geometry": {"type": "Point", "coordinates": [-170.71535601506116, 26.121446695759474]}}]}